STARLINK-1079
1 24937C 20001Z   21325.13611155  .00004307  00000-0  28862-3 0  3252
2 24937  53.0507 172.6294 0001688  81.0159 148.7482 15.06384602    17
